GLOBALSTAR M068         
1 32266U 07048D   24303.97827043 -.00000051  00000+0  29339-3 0  9995
2 32266  51.9884 284.0013 0001189   8.6822  25.8988 12.62805493788473
GLOBALSTAR M079         
1 37188U 10054A   24303.93161573 -.00000069  00000+0  19198-3 0  9990
2 37188  52.0014 120.7211 0001148 105.3496  53.9651 12.62266517647371
GLOBALSTAR M074         
1 37189U 10054B   24303.53415354 -.00000079  00000+0  13808-3 0  9999
2 37189  51.9991 121.2854 0000753  96.5985 298.1193 12.62258368647939
GLOBALSTAR M076         
1 37190U 10054C   24303.47848319 -.00000052  00000+0  29161-3 0  9995
2 37190  52.0005 121.6108 0000879 117.1607 260.8079 12.62272954647649
GLOBALSTAR M077         
1 37191U 10054D   24303.70168449 -.00000088  00000+0  85927-4 0  9993
2 37191  52.0071  77.7182 0000755 105.8687 267.6011 12.62266048648044
GLOBALSTAR M075         
1 37192U 10054E   24303.99339309 -.00000051  00000+0  29365-3 0  9993
2 37192  51.9924 162.4274 0000793  82.9409  57.8583 12.62268370646774
GLOBALSTAR M073         
1 37193U 10054F   24303.75750887 -.00000106  00000+0 -15196-4 0  9996
2 37193  52.0059  76.7848 0000804 116.4961  31.6181 12.62271676648734
GLOBALSTAR M083         
1 37739U 11033A   24304.01320784 -.00000065  00000+0  21375-3 0  9997
2 37739  51.9884  25.0541 0000730 105.3036  65.6443 12.62267036617783
GLOBALSTAR M088         
1 37740U 11033B   24303.95443417 -.00000078  00000+0  14528-3 0  9996
2 37740  51.9737 290.9186 0000543  71.0492 313.5830 12.62264146613327
GLOBALSTAR M091         
1 37741U 11033C   24303.36602949 -.00000087  00000+0  95545-4 0  9998
2 37741  51.9995 255.8553 0000863  68.5295  99.2747 12.62269356614031
GLOBALSTAR M085         
1 37742U 11033D   24303.51158459 -.00000065  00000+0  21459-3 0  9996
2 37742  51.9858 206.6533 0001037  73.3182  97.4988 12.62268267614560
GLOBALSTAR M081         
1 37743U 11033E   24303.91719397 -.00000079  00000+0  13856-3 0  9992
2 37743  51.9951 208.0625 0001007  86.5823   8.5100 12.62262459614766
GLOBALSTAR M089         
1 37744U 11033F   24304.05155969 -.00000046  00000+0  32028-3 0  9994
2 37744  51.9908 161.9273 0000657  96.9993  67.5394 12.62271617615877
GLOBALSTAR M084         
1 38040U 11080A   24303.98680154 -.00000079  00000+0  13637-3 0  9997
2 38040  52.0036  29.2866 0000302 136.2815  34.4257 12.62269273593593
GLOBALSTAR M080         
1 38041U 11080B   24304.16678605 -.00000076  00000+0  15772-3 0  9996
2 38041  52.0085  30.2651 0000538 163.5806 224.9719 12.62267413593881
GLOBALSTAR M082         
1 38042U 11080C   24303.94947375 -.00000057  00000+0  25925-3 0  9995
2 38042  52.0099 346.3505 0000795  68.0613 352.7252 12.62268584594429
GLOBALSTAR M092         
1 38043U 11080D   24303.67507053 -.00000082  00000+0  12413-3 0  9997
2 38043  52.0083  77.5458 0000677  99.5189 273.8705 12.62268516592844
GLOBALSTAR M090         
1 38044U 11080E   24304.13185208 -.00000046  00000+0  32470-3 0  9999
2 38044  51.9905 339.8996 0000584  79.5357 330.7481 12.62269706594601
GLOBALSTAR M086         
1 38045U 11080F   24304.16141549 -.00000061  00000+0  24140-3 0  9995
2 38045  51.9918 340.3423 0001063 150.9660 274.3023 12.62269089594612
GLOBALSTAR M097         
1 39072U 13005A   24303.93626512 -.00000099  00000+0  24800-4 0  9992
2 39072  52.0042 255.3414 0000779  80.3961 279.6993 12.62272408541739
GLOBALSTAR M093         
1 39073U 13005B   24303.59279331 -.00000084  00000+0  11145-3 0  9999
2 39073  51.9806 250.0570 0000878  74.9650 285.1314 12.62266424541645
GLOBALSTAR M094         
1 39074U 13005C   24303.90957015 -.00000053  00000+0  28470-3 0  9992
2 39074  51.9933 163.2446 0001163  91.9180 268.1820 12.62264538543299
GLOBALSTAR M096         
1 39075U 13005D   24304.00190766 -.00000054  00000+0  28017-3 0  9995
2 39075  52.0065 211.2976 0001062  77.6384 282.4602 12.62263607542220
GLOBALSTAR M078         
1 39076U 13005E   24303.65835785 -.00000084  00000+0  11104-3 0  9995
2 39076  51.9875 297.1644 0001315  41.4352 318.6614 12.62276804540808
GLOBALSTAR M095         
1 39077U 13005F   24304.23952977 -.00000075  00000+0  16272-3 0  9995
2 39077  51.9800 292.7087 0001031  65.4193 294.6781 12.62267110541093
GLOBALSTAR M087         
1 52888U 22064A   24303.83324684 -.00000066  00000+0  11921-3 0  9994
2 52888  51.9747  98.8680 0009052 351.3235   8.7508 13.37591462115548
